{
  "type": "FeatureCollection",
  "features": [
    {
      "type": "Feature",
      "properties": {
        "norad_id": 52912,
        "name": "GAOFEN-12 03",
        "group": "resource",
        "lat": 8.1620294514169,
        "lon": -116.7064367829602,
        "alt_km": 631.3735709147431,
        "timestamp": "2025-12-23T07:45:09.054466+00:00",
        "meta_object_name": "GAOFEN-12 03",
        "meta_object_id": "2022-069A",
        "meta_epoch": "2025-12-22T23:36:01.160928",
        "meta_mean_motion": 14.79631908,
        "meta_eccentricity": 0.00018928,
        "meta_inclination": 97.8483,
        "meta_ra_of_asc_node": 244.0954,
        "meta_arg_of_pericenter": 50.0877,
        "meta_mean_anomaly": 310.0501,
        "meta_ephemeris_type": 0,
        "meta_classification_type": "U",
        "meta_norad_cat_id": 52912,
        "meta_element_set_no": 999,
        "meta_rev_at_epoch": 18855,
        "meta_bstar": 0.0001885152,
        "meta_mean_motion_dot": 1.363e-05,
        "meta_mean_motion_ddot": 0,
        "tle_line1": "1 52912U 22069A   25356.98334677  .00001363  00000+0  18852-3 0  9995",
        "tle_line2": "2 52912  97.8483 244.0954 0001892  50.0877 310.0501 14.79631908188550"
      },
      "geometry": {
        "type": "Point",
        "coordinates": [
          -116.7064367829602,
          8.1620294514169
        ]
      }
    },
    {
      "type": "Feature",
      "properties": {
        "norad_id": 54754,
        "name": "SWOT",
        "group": "resource",
        "lat": -24.961069177020114,
        "lon": 98.57641190236565,
        "alt_km": 898.724637428476,
        "timestamp": "2025-12-23T07:45:09.054477+00:00",
        "meta_object_name": "SWOT",
        "meta_object_id": "2022-173A",
        "meta_epoch": "2025-12-22T22:11:58.907040",
        "meta_mean_motion": 14.00168335,
        "meta_eccentricity": 3.787e-05,
        "meta_inclination": 77.6109,
        "meta_ra_of_asc_node": 273.2411,
        "meta_arg_of_pericenter": 84.341,
        "meta_mean_anomaly": 275.7784,
        "meta_ephemeris_type": 0,
        "meta_classification_type": "U",
        "meta_norad_cat_id": 54754,
        "meta_element_set_no": 999,
        "meta_rev_at_epoch": 15448,
        "meta_bstar": 3.1194682e-05,
        "meta_mean_motion_dot": 4.3e-07,
        "meta_mean_motion_ddot": 0,
        "tle_line1": "1 54754U 22173A   25356.92498735  .00000043  00000+0  31195-4 0  9997",
        "tle_line2": "2 54754  77.6109 273.2411 0000378  84.3410 275.7784 14.00168335154488"
      },
      "geometry": {
        "type": "Point",
        "coordinates": [
          98.57641190236565,
          -24.961069177020114
        ]
      }
    },
    {
      "type": "Feature",
      "properties": {
        "norad_id": 57654,
        "name": "GAOFEN-12 04",
        "group": "resource",
        "lat": -1.7196082152082415,
        "lon": 92.68068773046188,
        "alt_km": 633.6324374709266,
        "timestamp": "2025-12-23T07:45:09.054487+00:00",
        "meta_object_name": "GAOFEN-12 04",
        "meta_object_id": "2023-123A",
        "meta_epoch": "2025-12-22T22:49:11.703360",
        "meta_mean_motion": 14.79728211,
        "meta_eccentricity": 0.00012069,
        "meta_inclination": 97.9131,
        "meta_ra_of_asc_node": 272.5534,
        "meta_arg_of_pericenter": 78.3605,
        "meta_mean_anomaly": 281.7743,
        "meta_ephemeris_type": 0,
        "meta_classification_type": "U",
        "meta_norad_cat_id": 57654,
        "meta_element_set_no": 999,
        "meta_rev_at_epoch": 12656,
        "meta_bstar": 0.00018059328,
        "meta_mean_motion_dot": 1.306e-05,
        "meta_mean_motion_ddot": 0,
        "tle_line1": "1 57654U 23123A   25356.95082990  .00001306  00000+0  18059-3 0  9996",
        "tle_line2": "2 57654  97.9131 272.5534 0001206  78.3605 281.7743 14.79728211126569"
      },
      "geometry": {
        "type": "Point",
        "coordinates": [
          92.68068773046188,
          -1.7196082152082415
        ]
      }
    },
    {
      "type": "Feature",
      "properties": {
        "norad_id": 59065,
        "name": "PARS 1",
        "group": "resource",
        "lat": 32.36552916580189,
        "lon": -36.28513381471263,
        "alt_km": 432.76583450176713,
        "timestamp": "2025-12-23T07:45:09.054497+00:00",
        "meta_object_name": "PARS 1",
        "meta_object_id": "2024-039Q",
        "meta_epoch": "2025-12-22T23:49:13.078272",
        "meta_mean_motion": 15.41197007,
        "meta_eccentricity": 0.00117781,
        "meta_inclination": 97.465,
        "meta_ra_of_asc_node": 328.1441,
        "meta_arg_of_pericenter": 41.064,
        "meta_mean_anomaly": 319.1491,
        "meta_ephemeris_type": 0,
        "meta_classification_type": "U",
        "meta_norad_cat_id": 59065,
        "meta_element_set_no": 999,
        "meta_rev_at_epoch": 10146,
        "meta_bstar": 0.00030673762,
        "meta_mean_motion_dot": 0.00012679,
        "meta_mean_motion_ddot": 0,
        "tle_line1": "1 59065U 24039Q   25356.99251248  .00012679  00000+0  30674-3 0  9991",
        "tle_line2": "2 59065  97.4650 328.1441 0011778  41.0640 319.1491 15.41197007101465"
      },
      "geometry": {
        "type": "Point",
        "coordinates": [
          -36.28513381471263,
          32.36552916580189
        ]
      }
    },
    {
      "type": "Feature",
      "properties": {
        "norad_id": 59371,
        "name": "RESURS-P 4",
        "group": "resource",
        "lat": -13.646008130342416,
        "lon": 121.66412170584056,
        "alt_km": 474.3953290360796,
        "timestamp": "2025-12-23T07:45:09.054506+00:00",
        "meta_object_name": "RESURS-P 4",
        "meta_object_id": "2024-061A",
        "meta_epoch": "2025-12-22T23:04:22.507968",
        "meta_mean_motion": 15.32162472,
        "meta_eccentricity": 9.102e-05,
        "meta_inclination": 97.2563,
        "meta_ra_of_asc_node": 303.0824,
        "meta_arg_of_pericenter": 71.2752,
        "meta_mean_anomaly": 288.8588,
        "meta_ephemeris_type": 0,
        "meta_classification_type": "U",
        "meta_norad_cat_id": 59371,
        "meta_element_set_no": 999,
        "meta_rev_at_epoch": 9677,
        "meta_bstar": 0.00014119426,
        "meta_mean_motion_dot": 4.308e-05,
        "meta_mean_motion_ddot": 0,
        "tle_line1": "1 59371U 24061A   25356.96137162  .00004308  00000+0  14119-3 0  9997",
        "tle_line2": "2 59371  97.2563 303.0824 0000910  71.2752 288.8588 15.32162472 96772"
      },
      "geometry": {
        "type": "Point",
        "coordinates": [
          121.66412170584056,
          -13.646008130342416
        ]
      }
    },
    {
      "type": "Feature",
      "properties": {
        "norad_id": 59625,
        "name": "LEGION 1",
        "group": "resource",
        "lat": -5.622889530309812,
        "lon": -108.8738127926485,
        "alt_km": 519.6723636504285,
        "timestamp": "2025-12-23T07:45:09.054516+00:00",
        "meta_object_name": "LEGION 1",
        "meta_object_id": "2024-081A",
        "meta_epoch": "2025-12-22T21:26:07.519776",
        "meta_mean_motion": 15.16573479,
        "meta_eccentricity": 0.00036279,
        "meta_inclination": 97.5201,
        "meta_ra_of_asc_node": 71.4452,
        "meta_arg_of_pericenter": 270.1017,
        "meta_mean_anomaly": 89.98,
        "meta_ephemeris_type": 0,
        "meta_classification_type": "U",
        "meta_norad_cat_id": 59625,
        "meta_element_set_no": 999,
        "meta_rev_at_epoch": 9081,
        "meta_bstar": 0.00029998685,
        "meta_mean_motion_dot": 5.79e-05,
        "meta_mean_motion_ddot": 0,
        "tle_line1": "1 59625U 24081A   25356.89314259  .00005790  00000+0  29999-3 0  9995",
        "tle_line2": "2 59625  97.5201  71.4452 0003627 270.1017  89.9800 15.16573479 90812"
      },
      "geometry": {
        "type": "Point",
        "coordinates": [
          -108.8738127926485,
          -5.622889530309812
        ]
      }
    },
    {
      "type": "Feature",
      "properties": {
        "norad_id": 59626,
        "name": "LEGION 2",
        "group": "resource",
        "lat": 5.73510489986457,
        "lon": 71.19907035288846,
        "alt_km": 520.2797919419372,
        "timestamp": "2025-12-23T07:45:09.054526+00:00",
        "meta_object_name": "LEGION 2",
        "meta_object_id": "2024-081B",
        "meta_epoch": "2025-12-22T20:38:33.108288",
        "meta_mean_motion": 15.16586549,
        "meta_eccentricity": 0.00056773,
        "meta_inclination": 97.5203,
        "meta_ra_of_asc_node": 71.5003,
        "meta_arg_of_pericenter": 249.6967,
        "meta_mean_anomaly": 110.3656,
        "meta_ephemeris_type": 0,
        "meta_classification_type": "U",
        "meta_norad_cat_id": 59626,
        "meta_element_set_no": 999,
        "meta_rev_at_epoch": 9081,
        "meta_bstar": 0.00026026109,
        "meta_mean_motion_dot": 5.017e-05,
        "meta_mean_motion_ddot": 0,
        "tle_line1": "1 59626U 24081B   25356.86010542  .00005017  00000+0  26026-3 0  9991",
        "tle_line2": "2 59626  97.5203  71.5003 0005677 249.6967 110.3656 15.16586549 90810"
      },
      "geometry": {
        "type": "Point",
        "coordinates": [
          71.19907035288846,
          5.73510489986457
        ]
      }
    }
  ]
}